start=new Date('2023-06-08T00:00:00.000Z').valueOf();
sats=[{"TLE_LINE2":"2 55647  69.9985 201.6627 0003346 270.1821  89.9842 15.35870946  1308","CLASSIFICATION_TYPE":"U","SEMIMAJOR_AXIS":"6836.472","MEAN_MOTION_DDOT":"0.0000000000000","ARG_OF_PERICENTER":"270.1821","LAUNCH_DATE":"2023-02-17","OBJECT_NAME":"STARLINK-5510","NORAD_CAT_ID":"55647","TLE_LINE1":"1 55647U 23021V   23158.91667824 -.00850142  00000-0 -26296-1 0  9995","COUNTRY_CODE":"US","OBJECT_TYPE":"PAYLOAD","EPHEMERIS_TYPE":"0","SITE":"AFWTR","TIME_SYSTEM":"UTC","REF_FRAME":"TEME","CENTER_NAME":"EARTH","RA_OF_ASC_NODE":"201.6627","PERIOD":"93.758","ELEMENT_SET_NO":"999","BSTAR":"-0.02629600000000","MEAN_ANOMALY":"89.9842","PERIAPSIS":"456.049","INCLINATION":"69.9985","REV_AT_EPOCH":"130","GP_ID":"233434590","ECCENTRICITY":"0.00033460","EPOCH":"2023-06-07T22:00:00.999936","DECAY_DATE":null,"OBJECT_ID":"2023-021V","MEAN_ELEMENT_THEORY":"SGP4","RCS_SIZE":"LARGE","FILE":"3927436","MEAN_MOTION":"15.35870946","APOAPSIS":"460.624","MEAN_MOTION_DOT":"-0.00850142"},{"REV_AT_EPOCH":"1779","PERIAPSIS":"461.619","MEAN_ANOMALY":"29.4984","INCLINATION":"69.9988","BSTAR":"-0.02778100000000","EPOCH":"2023-06-07T22:00:00.999936","ECCENTRICITY":"0.00034410","GP_ID":"233408937","MEAN_ELEMENT_THEORY":"SGP4","OBJECT_ID":"2023-021W","DECAY_DATE":null,"MEAN_MOTION_DOT":"-0.00845652","APOAPSIS":"466.327","MEAN_MOTION":"15.33973557","RCS_SIZE":"LARGE","FILE":"3927423","COUNTRY_CODE":"US","TLE_LINE1":"1 55648U 23021W   23158.91667824 -.00845652  00000-0 -27781-1 0  9996","OBJECT_NAME":"STARLINK-5501","NORAD_CAT_ID":"55648","ARG_OF_PERICENTER":"266.4135","LAUNCH_DATE":"2023-02-17","TLE_LINE2":"2 55648  69.9988 201.7364 0003441 266.4135  29.4984 15.33973557 17799","SEMIMAJOR_AXIS":"6842.108","MEAN_MOTION_DDOT":"0.0000000000000","CLASSIFICATION_TYPE":"U","REF_FRAME":"TEME","SITE":"AFWTR","TIME_SYSTEM":"UTC","OBJECT_TYPE":"PAYLOAD","EPHEMERIS_TYPE":"0","PERIOD":"93.874","ELEMENT_SET_NO":"999","RA_OF_ASC_NODE":"201.7364","CENTER_NAME":"EARTH"},{"APOAPSIS":"461.878","MEAN_MOTION_DOT":"-0.00850004","RCS_SIZE":"LARGE","FILE":"3927436","MEAN_MOTION":"15.35442589","OBJECT_ID":"2023-021X","MEAN_ELEMENT_THEORY":"SGP4","DECAY_DATE":null,"EPOCH":"2023-06-07T22:00:00.999936","GP_ID":"233435092","ECCENTRICITY":"0.00033190","MEAN_ANOMALY":"75.9350","PERIAPSIS":"457.339","INCLINATION":"69.9984","REV_AT_EPOCH":"130","BSTAR":"-0.02665600000000","RA_OF_ASC_NODE":"201.6788","ELEMENT_SET_NO":"999","PERIOD":"93.784","CENTER_NAME":"EARTH","REF_FRAME":"TEME","EPHEMERIS_TYPE":"0","OBJECT_TYPE":"PAYLOAD","TIME_SYSTEM":"UTC","SITE":"AFWTR","TLE_LINE1":"1 55649U 23021X   23158.91667824 -.00850004  00000-0 -26656-1 0  9994","COUNTRY_CODE":"US","CLASSIFICATION_TYPE":"U","TLE_LINE2":"2 55649  69.9984 201.6788 0003319 270.3045  75.9350 15.35442589  1304","SEMIMAJOR_AXIS":"6837.743","MEAN_MOTION_DDOT":"0.0000000000000","ARG_OF_PERICENTER":"270.3045","LAUNCH_DATE":"2023-02-17","NORAD_CAT_ID":"55649","OBJECT_NAME":"STARLINK-5469"},{"APOAPSIS":"464.277","MEAN_MOTION_DOT":"-0.00851524","MEAN_MOTION":"15.34628213","RCS_SIZE":"LARGE","FILE":"3927436","MEAN_ELEMENT_THEORY":"SGP4","OBJECT_ID":"2023-021Y","DECAY_DATE":null,"EPOCH":"2023-06-07T22:00:00.999936","ECCENTRICITY":"0.00032890","GP_ID":"233435842","PERIAPSIS":"459.777","MEAN_ANOMALY":"52.4689","INCLINATION":"69.9986","REV_AT_EPOCH":"130","BSTAR":"-0.02741300000000","RA_OF_ASC_NODE":"201.7105","ELEMENT_SET_NO":"999","PERIOD":"93.834","CENTER_NAME":"EARTH","REF_FRAME":"TEME","TIME_SYSTEM":"UTC","SITE":"AFWTR","OBJECT_TYPE":"PAYLOAD","EPHEMERIS_TYPE":"0","COUNTRY_CODE":"US","TLE_LINE1":"1 55650U 23021Y   23158.91667824 -.00851524  00000-0 -27413-1 0  9996","NORAD_CAT_ID":"55650","OBJECT_NAME":"STARLINK-5494","TLE_LINE2":"2 55650  69.9986 201.7105 0003289 266.1641  52.4689 15.34628213  1307","SEMIMAJOR_AXIS":"6840.162","MEAN_MOTION_DDOT":"0.0000000000000","CLASSIFICATION_TYPE":"U","ARG_OF_PERICENTER":"266.1641","LAUNCH_DATE":"2023-02-17"},{"COUNTRY_CODE":"US","TLE_LINE1":"1 55651U 23021Z   23158.91667824 -.00848769  00000-0 -28257-1 0  9991","NORAD_CAT_ID":"55651","OBJECT_NAME":"STARLINK-5506","LAUNCH_DATE":"2023-02-17","ARG_OF_PERICENTER":"269.4850","MEAN_MOTION_DDOT":"0.0000000000000","TLE_LINE2":"2 55651  69.9988 201.7533 0003439 269.4850  11.5812 15.33563690 17790","SEMIMAJOR_AXIS":"6843.327","CLASSIFICATION_TYPE":"U","REF_FRAME":"TEME","SITE":"AFWTR","TIME_SYSTEM":"UTC","OBJECT_TYPE":"PAYLOAD","EPHEMERIS_TYPE":"0","ELEMENT_SET_NO":"999","PERIOD":"93.899","RA_OF_ASC_NODE":"201.7533","CENTER_NAME":"EARTH","REV_AT_EPOCH":"1779","MEAN_ANOMALY":"11.5812","PERIAPSIS":"462.839","INCLINATION":"69.9988","BSTAR":"-0.02825700000000","EPOCH":"2023-06-07T22:00:00.999936","ECCENTRICITY":"0.00034390","GP_ID":"233408429","MEAN_ELEMENT_THEORY":"SGP4","OBJECT_ID":"2023-021Z","DECAY_DATE":null,"MEAN_MOTION_DOT":"-0.00848769","APOAPSIS":"467.545","MEAN_MOTION":"15.33563690","RCS_SIZE":"LARGE","FILE":"3927423"},{"REF_FRAME":"TEME","OBJECT_TYPE":"PAYLOAD","EPHEMERIS_TYPE":"0","SITE":"AFWTR","TIME_SYSTEM":"UTC","TLE_LINE1":"1 55652U 23021AA  23158.91667824 -.00851361  00000-0 -27051-1 0  9995","COUNTRY_CODE":"US","LAUNCH_DATE":"2023-02-17","ARG_OF_PERICENTER":"267.5721","TLE_LINE2":"2 55652  69.9986 201.6946 0003305 267.5721  65.0655 15.35037494  1303","CLASSIFICATION_TYPE":"U","SEMIMAJOR_AXIS":"6838.946","MEAN_MOTION_DDOT":"0.0000000000000","NORAD_CAT_ID":"55652","OBJECT_NAME":"STARLINK-5487","ELEMENT_SET_NO":"999","PERIOD":"93.809","RA_OF_ASC_NODE":"201.6946","CENTER_NAME":"EARTH","EPOCH":"2023-06-07T22:00:00.999936","GP_ID":"233434840","ECCENTRICITY":"0.00033050","REV_AT_EPOCH":"130","INCLINATION":"69.9986","PERIAPSIS":"458.551","MEAN_ANOMALY":"65.0655","BSTAR":"-0.02705100000000","MEAN_MOTION_DOT":"-0.00851361","APOAPSIS":"463.071","RCS_SIZE":"LARGE","FILE":"3927436","MEAN_MOTION":"15.35037494","OBJECT_ID":"2023-021AA","MEAN_ELEMENT_THEORY":"SGP4","DECAY_DATE":null},{"EPOCH":"2023-06-07T22:00:00.999936","GP_ID":"233435592","ECCENTRICITY":"0.00033490","INCLINATION":"69.9986","PERIAPSIS":"455.396","MEAN_ANOMALY":"96.2476","REV_AT_EPOCH":"130","BSTAR":"-0.02607900000000","APOAPSIS":"459.974","MEAN_MOTION_DOT":"-0.00849187","FILE":"3927436","RCS_SIZE":"LARGE","MEAN_MOTION":"15.36090560","OBJECT_ID":"2023-021AB","MEAN_ELEMENT_THEORY":"SGP4","DECAY_DATE":null,"REF_FRAME":"TEME","EPHEMERIS_TYPE":"0","OBJECT_TYPE":"PAYLOAD","SITE":"AFWTR","TIME_SYSTEM":"UTC","TLE_LINE1":"1 55653U 23021AB  23158.91667824 -.00849187  00000-0 -26079-1 0  9998","COUNTRY_CODE":"US","MEAN_MOTION_DDOT":"0.0000000000000","TLE_LINE2":"2 55653  69.9986 201.6547 0003349 270.9253  96.2476 15.36090560  1308","SEMIMAJOR_AXIS":"6835.820","CLASSIFICATION_TYPE":"U","ARG_OF_PERICENTER":"270.9253","LAUNCH_DATE":"2023-02-17","OBJECT_NAME":"STARLINK-5067","NORAD_CAT_ID":"55653","RA_OF_ASC_NODE":"201.6547","ELEMENT_SET_NO":"999","PERIOD":"93.744","CENTER_NAME":"EARTH"},{"ECCENTRICITY":"0.00033080","GP_ID":"233408931","EPOCH":"2023-06-07T22:00:00.999936","BSTAR":"-0.02899500000000","REV_AT_EPOCH":"1779","PERIAPSIS":"465.484","INCLINATION":"69.9989","MEAN_ANOMALY":"339.7544","MEAN_MOTION":"15.32704879","RCS_SIZE":"LARGE","FILE":"3927423","MEAN_MOTION_DOT":"-0.00847665","APOAPSIS":"470.013","DECAY_DATE":null,"MEAN_ELEMENT_THEORY":"SGP4","OBJECT_ID":"2023-021AC","SITE":"AFWTR","TIME_SYSTEM":"UTC","EPHEMERIS_TYPE":"0","OBJECT_TYPE":"PAYLOAD","REF_FRAME":"TEME","OBJECT_NAME":"STARLINK-5070","NORAD_CAT_ID":"55654","ARG_OF_PERICENTER":"269.4516","LAUNCH_DATE":"2023-02-17","SEMIMAJOR_AXIS":"6845.883","TLE_LINE2":"2 55654  69.9989 201.7895 0003308 269.4516 339.7544 15.32704879 17791","MEAN_MOTION_DDOT":"0.0000000000000","CLASSIFICATION_TYPE":"U","COUNTRY_CODE":"US","TLE_LINE1":"1 55654U 23021AC  23158.91667824 -.00847665  00000-0 -28995-1 0  9997","CENTER_NAME":"EARTH","ELEMENT_SET_NO":"999","PERIOD":"93.952","RA_OF_ASC_NODE":"201.7895"},{"FILE":"3927436","RCS_SIZE":"LARGE","MEAN_MOTION":"15.69921050","MEAN_MOTION_DOT":"0.00000664","APOAPSIS":"361.502","DECAY_DATE":null,"OBJECT_ID":"2023-021AD","MEAN_ELEMENT_THEORY":"SGP4","GP_ID":"233434591","ECCENTRICITY":"0.00035290","EPOCH":"2023-06-07T19:50:13.815456","BSTAR":"0.00000729580000","REV_AT_EPOCH":"1812","PERIAPSIS":"356.747","MEAN_ANOMALY":"91.6597","INCLINATION":"69.9972","CENTER_NAME":"EARTH","ELEMENT_SET_NO":"999","PERIOD":"91.724","RA_OF_ASC_NODE":"200.5003","OBJECT_TYPE":"PAYLOAD","EPHEMERIS_TYPE":"0","TIME_SYSTEM":"UTC","SITE":"AFWTR","REF_FRAME":"TEME","LAUNCH_DATE":"2023-02-17","ARG_OF_PERICENTER":"268.4195","MEAN_MOTION_DDOT":"0.0000000000000","TLE_LINE2":"2 55655  69.9972 200.5003 0003529 268.4195  91.6597 15.69921050 18121","SEMIMAJOR_AXIS":"6737.260","CLASSIFICATION_TYPE":"U","NORAD_CAT_ID":"55655","OBJECT_NAME":"STARLINK-5267","TLE_LINE1":"1 55655U 23021AD  23158.82654879  .00000664  00000-0  72958-5 0  9994","COUNTRY_CODE":"US"},{"GP_ID":"233434341","ECCENTRICITY":"0.00033360","EPOCH":"2023-06-07T22:00:00.999936","BSTAR":"-0.02590100000000","PERIAPSIS":"454.665","MEAN_ANOMALY":"104.7761","INCLINATION":"69.9987","REV_AT_EPOCH":"130","FILE":"3927436","RCS_SIZE":"LARGE","MEAN_MOTION":"15.36339889","APOAPSIS":"459.226","MEAN_MOTION_DOT":"-0.00850122","DECAY_DATE":null,"OBJECT_ID":"2023-021AE","MEAN_ELEMENT_THEORY":"SGP4","OBJECT_TYPE":"PAYLOAD","EPHEMERIS_TYPE":"0","TIME_SYSTEM":"UTC","SITE":"AFWTR","REF_FRAME":"TEME","TLE_LINE2":"2 55656  69.9987 201.6450 0003336 270.9260 104.7761 15.36339889  1301","MEAN_MOTION_DDOT":"0.0000000000000","SEMIMAJOR_AXIS":"6835.081","CLASSIFICATION_TYPE":"U","ARG_OF_PERICENTER":"270.9260","LAUNCH_DATE":"2023-02-17","NORAD_CAT_ID":"55656","OBJECT_NAME":"STARLINK-5326","TLE_LINE1":"1 55656U 23021AE  23158.91667824 -.00850122  00000-0 -25901-1 0  9995","COUNTRY_CODE":"US","CENTER_NAME":"EARTH","RA_OF_ASC_NODE":"201.6450","ELEMENT_SET_NO":"999","PERIOD":"93.729"}];
